{"type":"FeatureCollection",
    "features":[
        {"type":"Feature",
            "properties":{"addressLine1":"1050 Crow Canyon Road","addressLine2":"San Ramon (CA)","zip":"12346"},
            "geometry":{"type":"Point","coordinates":[-121.975193,37.777120]},
            "metadata":{"type":"virtual","state":"default"}},
        {"type":"Feature",
            "properties":{"addressLine1":"1 Alcosta Blvd","addressLine2":"San Ramon (CA)","zip":"12345"},
            "geometry":{"type":"Point","coordinates":[-121.964421,37.781428]},
            "metadata":{"type":"virtual"}},
        {"type":"Feature",
            "properties":{"addressLine1":"105 Deerwood Road","addressLine2":"San Ramon (CA)","zip":"12347"},
            "geometry":{"type":"Point","coordinates":[-121.984806,37.778816]},
            "metadata":{"type":"virtual"}},
        {"type":"Feature",
            "properties":{"addressLine1":"105 Deerwood Road","addressLine2":"San Ramon (CA)","zip":"12347"},
            "geometry":{"type":"Point","coordinates":[-121.966183, 37.760983]},
            "metadata":{"type":"virtual","state":"default", "size": "mini"}},
        {"type":"Feature",
            "properties":{"addressLine1":"105 Deerwood Road","addressLine2":"San Ramon (CA)","zip":"12347"},
            "geometry":{"type":"Point","coordinates":[-121.931500, 37.77215]},
            "metadata":{"type":"notification","state":"default", "icon":"\uf12a", "iconPos":{"x":-2.25, "y": 6}}},
        {"type":"Feature",
            "properties":{"addressLine1":"105 Deerwood Road","addressLine2":"San Ramon (CA)","zip":"12347"},
            "geometry":{"type":"Point","coordinates":[-121.913633, 37.7179]},
            "metadata":{"type":"notification","state":"default", "size": "mini"}},
        {"type":"Feature",
            "properties":{"addressLine1":"105 Deerwood Road","addressLine2":"San Ramon (CA)","zip":"12347"},
            "geometry":{"type":"Point","coordinates":[-121.922500, 37.700866]},
            "metadata":{"type":"info","state":"default", "size": "mini"}},
        {"type":"Feature",
            "properties":{"addressLine1":"105 Deerwood Road","addressLine2":"San Ramon (CA)","zip":"12347"},
            "geometry":{"type":"Point","coordinates":[-121.874933, 37.662533]},
            "metadata":{"type":"info","state":"default", "size": "mini"}}
    ]
}

